[{"OBJECT_NAME":"RADUGA 24","OBJECT_ID":"1989-098A","EPOCH":"2026-03-03T17:07:17.232096","MEAN_MOTION":1.00320756,"ECCENTRICITY":0.0003579,"INCLINATION":12.6183,"RA_OF_ASC_NODE":334.5375,"ARG_OF_PERICENTER":297.4303,"MEAN_ANOMALY":241.6995,"EPHEMERIS_TYPE":0,"CLASSIFICATION_TYPE":"U","NORAD_CAT_ID":20367,"ELEMENT_SET_NO":999,"REV_AT_EPOCH":13191,"BSTAR":0,"MEAN_MOTION_DOT":-3.03e-6,"MEAN_MOTION_DDOT":0},{"OBJECT_NAME":"COSMOS 2054","OBJECT_ID":"1989-101A","EPOCH":"2026-03-03T11:10:38.670240","MEAN_MOTION":1.00238659,"ECCENTRICITY":0.00019432,"INCLINATION":12.3504,"RA_OF_ASC_NODE":334.974,"ARG_OF_PERICENTER":277.5987,"MEAN_ANOMALY":264.2345,"EPHEMERIS_TYPE":0,"CLASSIFICATION_TYPE":"U","NORAD_CAT_ID":20391,"ELEMENT_SET_NO":999,"REV_AT_EPOCH":13280,"BSTAR":0,"MEAN_MOTION_DOT":6.0e-7,"MEAN_MOTION_DDOT":0},{"OBJECT_NAME":"STTW-4","OBJECT_ID":"1990-011A","EPOCH":"2026-03-03T15:56:46.624128","MEAN_MOTION":1.00318283,"ECCENTRICITY":0.0001693,"INCLINATION":14.2089,"RA_OF_ASC_NODE":347.2133,"ARG_OF_PERICENTER":182.7618,"MEAN_ANOMALY":316.5369,"EPHEMERIS_TYPE":0,"CLASSIFICATION_TYPE":"U","NORAD_CAT_ID":20473,"ELEMENT_SET_NO":999,"REV_AT_EPOCH":13198,"BSTAR":0,"MEAN_MOTION_DOT":-2.29e-6,"MEAN_MOTION_DDOT":0},{"OBJECT_NAME":"RADUGA 25","OBJECT_ID":"1990-016A","EPOCH":"2026-03-03T04:37:55.361568","MEAN_MOTION":1.00217261,"ECCENTRICITY":0.00046305,"INCLINATION":12.4319,"RA_OF_ASC_NODE":335.4219,"ARG_OF_PERICENTER":229.2292,"MEAN_ANOMALY":338.1507,"EPHEMERIS_TYPE":0,"CLASSIFICATION_TYPE":"U","NORAD_CAT_ID":20499,"ELEMENT_SET_NO":999,"REV_AT_EPOCH":13184,"BSTAR":0,"MEAN_MOTION_DOT":-3.07e-6,"MEAN_MOTION_DDOT":0},{"OBJECT_NAME":"INSAT-1D","OBJECT_ID":"1990-051A","EPOCH":"2026-03-03T11:50:09.475008","MEAN_MOTION":1.00282552,"ECCENTRICITY":0.00151357,"INCLINATION":14.6218,"RA_OF_ASC_NODE":354.7743,"ARG_OF_PERICENTER":197.8366,"MEAN_ANOMALY":226.174,"EPHEMERIS_TYPE":0,"CLASSIFICATION_TYPE":"U","NORAD_CAT_ID":20643,"ELEMENT_SET_NO":999,"REV_AT_EPOCH":11769,"BSTAR":0,"MEAN_MOTION_DOT":-1.68e-6,"MEAN_MOTION_DDOT":0},{"OBJECT_NAME":"GORIZONT 20","OBJECT_ID":"1990-054A","EPOCH":"2026-03-03T18:24:00.779616","MEAN_MOTION":1.00308695,"ECCENTRICITY":0.0006229,"INCLINATION":12.7838,"RA_OF_ASC_NODE":336.8047,"ARG_OF_PERICENTER":246.1007,"MEAN_ANOMALY":274.7016,"EPHEMERIS_TYPE":0,"CLASSIFICATION_TYPE":"U","NORAD_CAT_ID":20659,"ELEMENT_SET_NO":999,"REV_AT_EPOCH":13063,"BSTAR":0,"MEAN_MOTION_DOT":1.0e-7,"MEAN_MOTION_DDOT":0},{"OBJECT_NAME":"SL-12 R/B(2)","OBJECT_ID":"1990-054D","EPOCH":"2026-03-02T20:07:23.742336","MEAN_MOTION":1.00515063,"ECCENTRICITY":0.00131955,"INCLINATION":12.6284,"RA_OF_ASC_NODE":336.2286,"ARG_OF_PERICENTER":98.6921,"MEAN_ANOMALY":261.4757,"EPHEMERIS_TYPE":0,"CLASSIFICATION_TYPE":"U","NORAD_CAT_ID":20662,"ELEMENT_SET_NO":999,"REV_AT_EPOCH":13072,"BSTAR":0,"MEAN_MOTION_DOT":-2.3e-7,"MEAN_MOTION_DDOT":0},{"OBJECT_NAME":"COSMOS 2085","OBJECT_ID":"1990-061A","EPOCH":"2026-03-03T18:25:43.032288","MEAN_MOTION":1.00261117,"ECCENTRICITY":0.0013803,"INCLINATION":12.7711,"RA_OF_ASC_NODE":337.2263,"ARG_OF_PERICENTER":26.9118,"MEAN_ANOMALY":147.5918,"EPHEMERIS_TYPE":0,"CLASSIFICATION_TYPE":"U","NORAD_CAT_ID":20693,"ELEMENT_SET_NO":999,"REV_AT_EPOCH":13044,"BSTAR":0,"MEAN_MOTION_DOT":-1.01e-6,"MEAN_MOTION_DDOT":0},{"OBJECT_NAME":"SL-12 R/B(2)","OBJECT_ID":"1990-061D","EPOCH":"2026-03-03T18:29:46.036608","MEAN_MOTION":1.00322029,"ECCENTRICITY":0.0032018,"INCLINATION":12.738,"RA_OF_ASC_NODE":337.1001,"ARG_OF_PERICENTER":218.0772,"MEAN_ANOMALY":358.1166,"EPHEMERIS_TYPE":0,"CLASSIFICATION_TYPE":"U","NORAD_CAT_ID":20696,"ELEMENT_SET_NO":999,"REV_AT_EPOCH":12934,"BSTAR":0,"MEAN_MOTION_DOT":-3.83e-6,"MEAN_MOTION_DDOT":0},{"OBJECT_NAME":"SKYNET 4C","OBJECT_ID":"1990-079A","EPOCH":"2026-03-02T22:40:35.656896","MEAN_MOTION":1.00270076,"ECCENTRICITY":0.00040635,"INCLINATION":13.3723,"RA_OF_ASC_NODE":350.5381,"ARG_OF_PERICENTER":332.5598,"MEAN_ANOMALY":211.1359,"EPHEMERIS_TYPE":0,"CLASSIFICATION_TYPE":"U","NORAD_CAT_ID":20776,"ELEMENT_SET_NO":999,"REV_AT_EPOCH":12982,"BSTAR":0,"MEAN_MOTION_DOT":1.17e-6,"MEAN_MOTION_DDOT":0},{"OBJECT_NAME":"SL-12 R/B(2)","OBJECT_ID":"1974-060F","EPOCH":"2026-03-03T18:29:18.132864","MEAN_MOTION":1.00325259,"ECCENTRICITY":0.0014421,"INCLINATION":1.6235,"RA_OF_ASC_NODE":253.3679,"ARG_OF_PERICENTER":224.256,"MEAN_ANOMALY":72.8522,"EPHEMERIS_TYPE":0,"CLASSIFICATION_TYPE":"U","NORAD_CAT_ID":20836,"ELEMENT_SET_NO":999,"REV_AT_EPOCH":4494,"BSTAR":0,"MEAN_MOTION_DOT":-3.72e-6,"MEAN_MOTION_DDOT":0},{"OBJECT_NAME":"GALAXY 6 (G-6)","OBJECT_ID":"1990-091B","EPOCH":"2026-03-03T10:30:38.783232","MEAN_MOTION":0.99756109,"ECCENTRICITY":0.00059165,"INCLINATION":13.9555,"RA_OF_ASC_NODE":10.7899,"ARG_OF_PERICENTER":257.3917,"MEAN_ANOMALY":292.6837,"EPHEMERIS_TYPE":0,"CLASSIFICATION_TYPE":"U","NORAD_CAT_ID":20873,"ELEMENT_SET_NO":999,"REV_AT_EPOCH":4539,"BSTAR":0,"MEAN_MOTION_DOT":1.9e-7,"MEAN_MOTION_DDOT":0},{"OBJECT_NAME":"GORIZONT 21","OBJECT_ID":"1990-094A","EPOCH":"2026-03-03T17:03:43.258176","MEAN_MOTION":1.00230023,"ECCENTRICITY":0.00073,"INCLINATION":12.8365,"RA_OF_ASC_NODE":337.5039,"ARG_OF_PERICENTER":270.6689,"MEAN_ANOMALY":306.393,"EPHEMERIS_TYPE":0,"CLASSIFICATION_TYPE":"U","NORAD_CAT_ID":20923,"ELEMENT_SET_NO":999,"REV_AT_EPOCH":12939,"BSTAR":0,"MEAN_MOTION_DOT":-3.28e-6,"MEAN_MOTION_DDOT":0},{"OBJECT_NAME":"GORIZONT 22","OBJECT_ID":"1990-102A","EPOCH":"2026-03-03T17:03:43.311744","MEAN_MOTION":1.00302197,"ECCENTRICITY":0.000492,"INCLINATION":12.8232,"RA_OF_ASC_NODE":337.979,"ARG_OF_PERICENTER":342.6702,"MEAN_ANOMALY":233.3067,"EPHEMERIS_TYPE":0,"CLASSIFICATION_TYPE":"U","NORAD_CAT_ID":20953,"ELEMENT_SET_NO":999,"REV_AT_EPOCH":12931,"BSTAR":0,"MEAN_MOTION_DOT":-3.22e-6,"MEAN_MOTION_DDOT":0},{"OBJECT_NAME":"RADUGA 26","OBJECT_ID":"1990-112A","EPOCH":"2026-03-03T18:24:51.214752","MEAN_MOTION":1.00226599,"ECCENTRICITY":0.0002689,"INCLINATION":12.9291,"RA_OF_ASC_NODE":338.6439,"ARG_OF_PERICENTER":108.2837,"MEAN_ANOMALY":57.4226,"EPHEMERIS_TYPE":0,"CLASSIFICATION_TYPE":"U","NORAD_CAT_ID":21016,"ELEMENT_SET_NO":999,"REV_AT_EPOCH":12920,"BSTAR":0,"MEAN_MOTION_DOT":-2.9e-7,"MEAN_MOTION_DDOT":0},{"OBJECT_NAME":"SL-12 R/B(2)","OBJECT_ID":"1990-112D","EPOCH":"2026-03-02T06:04:42.229920","MEAN_MOTION":1.00014826,"ECCENTRICITY":0.00247261,"INCLINATION":12.9909,"RA_OF_ASC_NODE":338.8264,"ARG_OF_PERICENTER":182.0664,"MEAN_ANOMALY":4.5116,"EPHEMERIS_TYPE":0,"CLASSIFICATION_TYPE":"U","NORAD_CAT_ID":21019,"ELEMENT_SET_NO":999,"REV_AT_EPOCH":11886,"BSTAR":0,"MEAN_MOTION_DOT":-1.99e-6,"MEAN_MOTION_DDOT":0},{"OBJECT_NAME":"RADUGA-1 2","OBJECT_ID":"1990-116A","EPOCH":"2026-03-03T12:56:11.357376","MEAN_MOTION":1.00242258,"ECCENTRICITY":0.0003456,"INCLINATION":12.9714,"RA_OF_ASC_NODE":338.6727,"ARG_OF_PERICENTER":135.8063,"MEAN_ANOMALY":337.7218,"EPHEMERIS_TYPE":0,"CLASSIFICATION_TYPE":"U","NORAD_CAT_ID":21038,"ELEMENT_SET_NO":999,"REV_AT_EPOCH":4628,"BSTAR":0,"MEAN_MOTION_DOT":-3.02e-6,"MEAN_MOTION_DDOT":0}]
