RADUGA 24               
1 20367U 89098A   26062.71339389 -.00000303  00000+0  00000+0 0  9996
2 20367  12.6183 334.5375 0003579 297.4303 241.6995  1.00320756131918
COSMOS 2054             
1 20391U 89101A   26062.46572535  .00000060  00000+0  00000+0 0  9991
2 20391  12.3504 334.9740 0001943 277.5987 264.2345  1.00238659132808
STTW-4                  
1 20473U 90011A   26062.66442852 -.00000229  00000+0  00000+0 0  9992
2 20473  14.2089 347.2133 0001693 182.7618 316.5369  1.00318283131988
RADUGA 25               
1 20499U 90016A   26062.19300187 -.00000307  00000+0  00000+0 0  9994
2 20499  12.4319 335.4219 0004630 229.2292 338.1507  1.00217261131848
INSAT-1D                
1 20643U 90051A   26062.49316522 -.00000168  00000+0  00000+0 0  9992
2 20643  14.6218 354.7743 0015135 197.8366 226.1740  1.00282552117698
GORIZONT 20             
1 20659U 90054A   26062.76667569  .00000010  00000+0  00000+0 0  9997
2 20659  12.7838 336.8047 0006229 246.1007 274.7016  1.00308695130635
SL-12 R/B(2)            
1 20662U 90054D   26061.83846924 -.00000023  00000+0  00000+0 0  9997
2 20662  12.6284 336.2286 0013195  98.6921 261.4757  1.00515063130721
COSMOS 2085             
1 20693U 90061A   26062.76785917 -.00000101  00000+0  00000+0 0  9993
2 20693  12.7711 337.2263 0013803  26.9118 147.5918  1.00261117130445
SL-12 R/B(2)            
1 20696U 90061D   26062.77067172 -.00000383  00000+0  00000+0 0  9995
2 20696  12.7380 337.1001 0032018 218.0772 358.1166  1.00322029129340
SKYNET 4C               
1 20776U 90079A   26061.94485714  .00000117  00000+0  00000+0 0  9991
2 20776  13.3723 350.5381 0004063 332.5598 211.1359  1.00270076129823
SL-12 R/B(2)            
1 20836U 74060F   26062.77034876 -.00000372  00000+0  00000+0 0  9995
2 20836   1.6235 253.3679 0014421 224.2560  72.8522  1.00325259 44940
GALAXY 6 (G-6)          
1 20873U 90091B   26062.43794888  .00000019  00000+0  00000+0 0  9994
2 20873  13.9555  10.7899 0005916 257.3917 292.6837  0.99756109 45393
GORIZONT 21             
1 20923U 90094A   26062.71091734 -.00000328  00000+0  00000+0 0  9998
2 20923  12.8365 337.5039 0007300 270.6689 306.3930  1.00230023129390
GORIZONT 22             
1 20953U 90102A   26062.71091796 -.00000322  00000+0  00000+0 0  9993
2 20953  12.8232 337.9790 0004920 342.6702 233.3067  1.00302197129319
RADUGA 26               
1 21016U 90112A   26062.76725943 -.00000029  00000+0  00000+0 0  9992
2 21016  12.9291 338.6439 0002689 108.2837  57.4226  1.00226599129200
SL-12 R/B(2)            
1 21019U 90112D   26061.25326655 -.00000199  00000+0  00000+0 0  9993
2 21019  12.9909 338.8264 0024726 182.0664   4.5116  1.00014826118860
RADUGA-1 2              
1 21038U 90116A   26062.53902034 -.00000302  00000+0  00000+0 0  9997
2 21038  12.9714 338.6727 0003456 135.8063 337.7218  1.00242258 46285
